ORBCOMM FM20            
1 25416U 98046D   24190.89196220  .00001233  00000+0  47420-3 0  9996
2 25416  44.9964   4.9751 0000712 192.1542 167.9288 14.35426012354906
ORBCOMM FM16            
1 25417U 98046E   24190.87796776  .00001946  00000+0  70487-3 0  9997
2 25417  44.9953   0.3451 0002528  10.7423 349.3478 14.36481425354842
ORBCOMM FM15            
1 25418U 98046F   24190.84624070  .00001672  00000+0  61617-3 0  9993
2 25418  44.9993   4.6988 0002287  16.2545 343.8376 14.36193473354846
ORBCOMM FM14            
1 25419U 98046G   24190.86330864  .00001875  00000+0  68235-3 0  9999
2 25419  44.9977   3.6442 0001038 348.8645  11.2179 14.36389021355025
ORBCOMM FM13            
1 25420U 98046H   24190.80075504  .00001459  00000+0  55005-3 0  9991
2 25420  44.9996   9.1580 0003556 349.6741  10.4033 14.35619068353850
ORBCOMM FM21            
1 25475U 98053A   24190.89411261  .00001301  00000+0  49685-3 0  9995
2 25475  45.0092  93.1262 0001503 339.5928  20.4859 14.35517378347888
ORBCOMM FM22            
1 25476U 98053B   24190.91838522  .00001600  00000+0  59281-3 0  9997
2 25476  45.0086  90.0427 0002723 316.3156  43.7476 14.36089651347884
ORBCOMM FM23            
1 25477U 98053C   24190.85076467  .00001360  00000+0  51638-3 0  9994
2 25477  45.0092  95.7353 0002275 319.3065  40.7612 14.35570211348028
